{
  "type": "FeatureCollection",
  "features": [
    {
      "type": "Feature",
      "properties": {
        "norad_id": 35605,
        "name": "COSMOS 2251 DEB",
        "group": "cosmos-2251-debris",
        "lat": 73.54768569295216,
        "lon": 32.434917903244866,
        "alt_km": 456.31894392419326,
        "timestamp": "2025-12-23T05:02:12.426145+00:00",
        "meta_object_name": "COSMOS 2251 DEB",
        "meta_object_id": "1993-036AMY",
        "meta_epoch": "2025-12-22T14:36:44.008416",
        "meta_mean_motion": 15.38179315,
        "meta_eccentricity": 0.00228045,
        "meta_inclination": 73.869,
        "meta_ra_of_asc_node": 315.1978,
        "meta_arg_of_pericenter": 235.9327,
        "meta_mean_anomaly": 123.9715,
        "meta_ephemeris_type": 0,
        "meta_classification_type": "U",
        "meta_norad_cat_id": 35605,
        "meta_element_set_no": 999,
        "meta_rev_at_epoch": 66123,
        "meta_bstar": 0.0066900453,
        "meta_mean_motion_dot": 0.00262511,
        "meta_mean_motion_ddot": 0,
        "tle_line1": "1 35605U 93036AMY 25356.60884269  .00262511  00000+0  66900-2 0  9993",
        "tle_line2": "2 35605  73.8690 315.1978 0022804 235.9327 123.9715 15.38179315661234"
      },
      "geometry": {
        "type": "Point",
        "coordinates": [
          32.434917903244866,
          73.54768569295216
        ]
      }
    },
    {
      "type": "Feature",
      "properties": {
        "norad_id": 35606,
        "name": "COSMOS 2251 DEB",
        "group": "cosmos-2251-debris",
        "lat": -17.824488123747926,
        "lon": -11.251976870072909,
        "alt_km": 1377.3558328658146,
        "timestamp": "2025-12-23T05:02:12.426155+00:00",
        "meta_object_name": "COSMOS 2251 DEB",
        "meta_object_id": "1993-036AMZ",
        "meta_epoch": "2025-12-22T16:36:21.551904",
        "meta_mean_motion": 13.41219032,
        "meta_eccentricity": 0.04568187,
        "meta_inclination": 73.8097,
        "meta_ra_of_asc_node": 354.9331,
        "meta_arg_of_pericenter": 199.1781,
        "meta_mean_anomaly": 159.163,
        "meta_ephemeris_type": 0,
        "meta_classification_type": "U",
        "meta_norad_cat_id": 35606,
        "meta_element_set_no": 999,
        "meta_rev_at_epoch": 61173,
        "meta_bstar": 0.00021075659,
        "meta_mean_motion_dot": 1.94e-06,
        "meta_mean_motion_ddot": 0,
        "tle_line1": "1 35606U 93036AMZ 25356.69191611  .00000194  00000+0  21076-3 0  9998",
        "tle_line2": "2 35606  73.8097 354.9331 0456818 199.1781 159.1630 13.41219032611731"
      },
      "geometry": {
        "type": "Point",
        "coordinates": [
          -11.251976870072909,
          -17.824488123747926
        ]
      }
    },
    {
      "type": "Feature",
      "properties": {
        "norad_id": 35611,
        "name": "COSMOS 2251 DEB",
        "group": "cosmos-2251-debris",
        "lat": 23.6519600998448,
        "lon": 166.09840145381753,
        "alt_km": 663.8397305147955,
        "timestamp": "2025-12-23T05:02:12.426165+00:00",
        "meta_object_name": "COSMOS 2251 DEB",
        "meta_object_id": "1993-036ANE",
        "meta_epoch": "2025-12-19T11:16:40.848672",
        "meta_mean_motion": 14.73020971,
        "meta_eccentricity": 0.0021353,
        "meta_inclination": 74.0189,
        "meta_ra_of_asc_node": 166.1787,
        "meta_arg_of_pericenter": 238.9125,
        "meta_mean_anomaly": 120.9952,
        "meta_ephemeris_type": 0,
        "meta_classification_type": "U",
        "meta_norad_cat_id": 35611,
        "meta_element_set_no": 999,
        "meta_rev_at_epoch": 87389,
        "meta_bstar": 0.0015718,
        "meta_mean_motion_dot": 0.0001012,
        "meta_mean_motion_ddot": 0,
        "tle_line1": "1 35611U 93036ANE 25353.46991723  .00010120  00000+0  15718-2 0  9993",
        "tle_line2": "2 35611  74.0189 166.1787 0021353 238.9125 120.9952 14.73020971873894"
      },
      "geometry": {
        "type": "Point",
        "coordinates": [
          166.09840145381753,
          23.6519600998448
        ]
      }
    },
    {
      "type": "Feature",
      "properties": {
        "norad_id": 35614,
        "name": "COSMOS 2251 DEB",
        "group": "cosmos-2251-debris",
        "lat": -70.06175123426833,
        "lon": -105.31806847427667,
        "alt_km": 705.8872321730778,
        "timestamp": "2025-12-23T05:02:12.426175+00:00",
        "meta_object_name": "COSMOS 2251 DEB",
        "meta_object_id": "1993-036ANH",
        "meta_epoch": "2025-12-22T04:50:52.701504",
        "meta_mean_motion": 14.67087782,
        "meta_eccentricity": 0.00751415,
        "meta_inclination": 73.9595,
        "meta_ra_of_asc_node": 309.1128,
        "meta_arg_of_pericenter": 161.1452,
        "meta_mean_anomaly": 199.2529,
        "meta_ephemeris_type": 0,
        "meta_classification_type": "U",
        "meta_norad_cat_id": 35614,
        "meta_element_set_no": 999,
        "meta_rev_at_epoch": 87868,
        "meta_bstar": 0.00075496675,
        "meta_mean_motion_dot": 4.392e-05,
        "meta_mean_motion_ddot": 0,
        "tle_line1": "1 35614U 93036ANH 25356.20199886  .00004392  00000+0  75497-3 0  9996",
        "tle_line2": "2 35614  73.9595 309.1128 0075141 161.1452 199.2529 14.67087782878685"
      },
      "geometry": {
        "type": "Point",
        "coordinates": [
          -105.31806847427667,
          -70.06175123426833
        ]
      }
    },
    {
      "type": "Feature",
      "properties": {
        "norad_id": 35645,
        "name": "COSMOS 2251 DEB",
        "group": "cosmos-2251-debris",
        "lat": -73.01962595747922,
        "lon": -2.240125725376212,
        "alt_km": 715.3376014054938,
        "timestamp": "2025-12-23T05:02:12.426185+00:00",
        "meta_object_name": "COSMOS 2251 DEB",
        "meta_object_id": "1993-036ANL",
        "meta_epoch": "2025-12-20T22:37:16.438368",
        "meta_mean_motion": 14.45688702,
        "meta_eccentricity": 0.0069769,
        "meta_inclination": 73.9649,
        "meta_ra_of_asc_node": 72.3676,
        "meta_arg_of_pericenter": 229.1797,
        "meta_mean_anomaly": 130.3298,
        "meta_ephemeris_type": 0,
        "meta_classification_type": "U",
        "meta_norad_cat_id": 35645,
        "meta_element_set_no": 999,
        "meta_rev_at_epoch": 86890,
        "meta_bstar": 0.0012662,
        "meta_mean_motion_dot": 4.592e-05,
        "meta_mean_motion_ddot": 0,
        "tle_line1": "1 35645U 93036ANL 25354.94255137  .00004592  00000+0  12662-2 0  9997",
        "tle_line2": "2 35645  73.9649  72.3676 0069769 229.1797 130.3298 14.45688702868900"
      },
      "geometry": {
        "type": "Point",
        "coordinates": [
          -2.240125725376212,
          -73.01962595747922
        ]
      }
    },
    {
      "type": "Feature",
      "properties": {
        "norad_id": 35646,
        "name": "COSMOS 2251 DEB",
        "group": "cosmos-2251-debris",
        "lat": -33.87542628886411,
        "lon": -129.38337794465596,
        "alt_km": 968.430190990086,
        "timestamp": "2025-12-23T05:02:12.426194+00:00",
        "meta_object_name": "COSMOS 2251 DEB",
        "meta_object_id": "1993-036ANM",
        "meta_epoch": "2025-12-22T19:39:20.278080",
        "meta_mean_motion": 13.40833248,
        "meta_eccentricity": 0.04560319,
        "meta_inclination": 73.8715,
        "meta_ra_of_asc_node": 40.0356,
        "meta_arg_of_pericenter": 148.5212,
        "meta_mean_anomaly": 335.9889,
        "meta_ephemeris_type": 0,
        "meta_classification_type": "U",
        "meta_norad_cat_id": 35646,
        "meta_element_set_no": 999,
        "meta_rev_at_epoch": 81993,
        "meta_bstar": 0.00038990225,
        "meta_mean_motion_dot": 3.77e-06,
        "meta_mean_motion_ddot": 0,
        "tle_line1": "1 35646U 93036ANM 25356.81898470  .00000377  00000+0  38990-3 0  9999",
        "tle_line2": "2 35646  73.8715  40.0356 0456031 148.5212 335.9889 13.40833248819938"
      },
      "geometry": {
        "type": "Point",
        "coordinates": [
          -129.38337794465596,
          -33.87542628886411
        ]
      }
    },
    {
      "type": "Feature",
      "properties": {
        "norad_id": 35647,
        "name": "COSMOS 2251 DEB",
        "group": "cosmos-2251-debris",
        "lat": -74.00760065290882,
        "lon": -173.2170005157146,
        "alt_km": 759.5771549413939,
        "timestamp": "2025-12-23T05:02:12.426205+00:00",
        "meta_object_name": "COSMOS 2251 DEB",
        "meta_object_id": "1993-036ANN",
        "meta_epoch": "2025-12-20T12:35:18.566880",
        "meta_mean_motion": 14.43670529,
        "meta_eccentricity": 0.0045979,
        "meta_inclination": 74.0241,
        "meta_ra_of_asc_node": 280.0829,
        "meta_arg_of_pericenter": 17.3675,
        "meta_mean_anomaly": 342.9041,
        "meta_ephemeris_type": 0,
        "meta_classification_type": "U",
        "meta_norad_cat_id": 35647,
        "meta_element_set_no": 999,
        "meta_rev_at_epoch": 67776,
        "meta_bstar": 0.00050731,
        "meta_mean_motion_dot": 1.718e-05,
        "meta_mean_motion_ddot": 0,
        "tle_line1": "1 35647U 93036ANN 25354.52452045  .00001718  00000+0  50731-3 0  9997",
        "tle_line2": "2 35647  74.0241 280.0829 0045979  17.3675 342.9041 14.43670529677764"
      },
      "geometry": {
        "type": "Point",
        "coordinates": [
          -173.2170005157146,
          -74.00760065290882
        ]
      }
    }
  ]
}